[{"OBJECT_NAME":"ICEYE-X4","OBJECT_ID":"2019-038D","EPOCH":"2026-03-09T23:53:58.416000","MEAN_MOTION":15.26985132,"ECCENTRICITY":0.00122769,"INCLINATION":97.8888,"RA_OF_ASC_NODE":96.1923,"ARG_OF_PERICENTER":293.9914,"MEAN_ANOMALY":66.0038,"EPHEMERIS_TYPE":0,"CLASSIFICATION_TYPE":"U","NORAD_CAT_ID":44390,"ELEMENT_SET_NO":999,"REV_AT_EPOCH":36665,"BSTAR":0.00049915294,"MEAN_MOTION_DOT":0.00013179,"MEAN_MOTION_DDOT":0},{"OBJECT_NAME":"STARLINK-34888","OBJECT_ID":"2025-195P","EPOCH":"2026-03-09T22:55:30.190656","MEAN_MOTION":15.30204893,"ECCENTRICITY":0.00010146,"INCLINATION":53.1566,"RA_OF_ASC_NODE":256.9944,"ARG_OF_PERICENTER":72.2377,"MEAN_ANOMALY":287.8734,"EPHEMERIS_TYPE":0,"CLASSIFICATION_TYPE":"U","NORAD_CAT_ID":65471,"ELEMENT_SET_NO":999,"REV_AT_EPOCH":3003,"BSTAR":0.0007813874,"MEAN_MOTION_DOT":0.00022858,"MEAN_MOTION_DDOT":0}]
